NORAD_CAT_ID,OBJECT_NAME,OBJECT_TYPE,EPOCH,MEAN_MOTION,ECCENTRICITY,INCLINATION,RA_OF_ASC_NODE,ARG_OF_PERICENTER,MEAN_ANOMALY,BSTAR,MEAN_MOTION_DOT,MEAN_MOTION_DDOT,TLE_LINE0,TLE_LINE1,TLE_LINE2,SEMIMAJOR_AXIS,PERIOD,APOGEE,PERIGEE,DECAYED
49455.0,STARLINK-3145,PAYLOAD,2022-07-06 20:04:06,15.08832497,0.000286,53.2181,122.9269,54.0563,306.0694,-5.835e-05,-1.217e-05,0.0,0 STARLINK-3145,1 49455U 21104AZ  22187.83618798 -.00001217  00000-0 -58350-4 0  9993,2 49455  53.2181 122.9269 0002860  54.0563 306.0694 15.08832497 37273,6917.903,95.438,541.747,537.79,0.0
49455.0,STARLINK-3145,PAYLOAD,2022-07-07 05:36:25,15.08833046,0.0002842,53.2185,121.1426,53.4719,306.6535,-8.515700000000001e-05,-1.643e-05,0.0,0 STARLINK-3145,1 49455U 21104AZ  22188.23362989 -.00001643  00000-0 -85157-4 0  9994,2 49455  53.2185 121.1426 0002842  53.4719 306.6535 15.08833046 36268,6917.901999999999,95.438,541.7330000000002,537.8009999999998,0.0
49455.0,STARLINK-3145,PAYLOAD,2022-07-07 19:54:53,15.08836002,0.0002752,53.2182,118.4666,50.6864,309.4372,1.7923e-05,-3e-08,0.0,0 STARLINK-3145,1 49455U 21104AZ  22188.82978564 -.00000003  00000-0  17923-4 0  9995,2 49455  53.2182 118.4666 0002752  50.6864 309.4372 15.08836002 37424,6917.893,95.438,541.661,537.854,0.0
49455.0,STARLINK-3145,PAYLOAD,2022-07-08 03:51:48,15.08842428,0.0002835,53.2183,116.9805,52.538,307.5869,0.00011193,1.493e-05,0.0,0 STARLINK-3145,1 49455U 21104AZ  22189.16097914  .00001493  00000-0  11193-3 0  9999,2 49455  53.2183 116.9805 0002835  52.5380 307.5869 15.08842428 37473,6917.873000000001,95.437,541.6990000000002,537.7769999999998,0.0
49455.0,STARLINK-3145,PAYLOAD,2022-07-08 11:48:43,15.08851664,0.0002798,53.2182,115.4937,53.949,306.1762,0.00020205,2.93e-05,0.0,0 STARLINK-3145,1 49455U 21104AZ  22189.49216995  .00002930  00000-0  20205-3 0  9998,2 49455  53.2182 115.4937 0002798  53.9490 306.1762 15.08851664 37522,6917.845,95.437,541.645,537.774,0.0
49455.0,STARLINK-3145,PAYLOAD,2022-07-08 19:45:39,15.08849887,0.0002749,53.2183,114.0067,55.1311,304.9939,0.00023014,3.377e-05,0.0,0 STARLINK-3145,1 49455U 21104AZ  22189.82337013  .00003377  00000-0  23014-3 0  9997,2 49455  53.2183 114.0067 0002749  55.1311 304.9939 15.08849887 36507,6917.85,95.437,541.617,537.813,0.0
49455.0,STARLINK-3145,PAYLOAD,2022-07-09 11:39:30,15.08848588,0.0003075,53.2172,111.0326,57.0543,303.0744,-6.1466e-05,-1.267e-05,0.0,0 STARLINK-3145,1 49455U 21104AZ  22190.48577189 -.00001267  00000-0 -61466-4 0  9993,2 49455  53.2172 111.0326 0003075  57.0543 303.0744 15.08848588 37671,6917.854,95.437,541.846,537.592,0.0
49455.0,STARLINK-3145,PAYLOAD,2022-07-09 18:01:03,15.0884612,0.0003713,53.2169,109.8439,62.0658,298.071,-0.00015932,-2.825e-05,0.0,0 STARLINK-3145,1 49455U 21104AZ  22190.75073271 -.00002825  00000-0 -15932-3 0  9993,2 49455  53.2169 109.8439 0003713  62.0658 298.0710 15.08846120 36641,6917.861999999999,95.437,542.295,537.158,0.0
49455.0,STARLINK-3145,PAYLOAD,2022-07-10 03:33:23,15.08793944,0.0002682,53.2168,108.0599,52.7822,307.3414,-0.0010455,-0.00016869,0.0,0 STARLINK-3145,1 49455U 21104AZ  22191.14819203 -.00016869  00000-0 -10455-2 0  9997,2 49455  53.2168 108.0599 0002682  52.7822 307.3414 15.08793944 37776,6918.021,95.44,541.742,538.031,0.0
49455.0,STARLINK-3145,PAYLOAD,2022-07-10 19:27:16,15.08811115,0.0001995,53.2169,105.0846,43.7307,316.3842,0.00028404,4.232e-05,0.0,0 STARLINK-3145,1 49455U 21104AZ  22191.81060254  .00004232  00000-0  28404-3 0  9998,2 49455  53.2169 105.0846 0001995  43.7307 316.3842 15.08811115 37870,6917.969,95.439,541.214,538.4540000000002,0.0
49455.0,STARLINK-3145,PAYLOAD,2022-07-11 03:24:12,15.088390900000002,0.0001974,53.2166,103.5991,40.7082,319.4058,0.0015362,0.00024245,0.0,0 STARLINK-3145,1 49455U 21104AZ  22192.14180569  .00024245  00000-0  15362-2 0  9991,2 49455  53.2166 103.5991 0001974  40.7082 319.4058 15.08839090 37926,6917.8830000000025,95.438,541.114,538.383,0.0
49455.0,STARLINK-3145,PAYLOAD,2022-07-11 11:21:07,15.08845526,0.0002029,53.2167,102.1118,45.8195,314.2963,0.0011675,0.00018345,0.0,0 STARLINK-3145,1 49455U 21104AZ  22192.47300649  .00018345  00000-0  11675-2 0  9997,2 49455  53.2167 102.1118 0002029  45.8195 314.2963 15.08845526 36902,6917.863,95.437,541.132,538.325,0.0
49455.0,STARLINK-3145,PAYLOAD,2022-07-11 17:42:40,15.08854532,0.0002043,53.2163,100.9225,46.2885,313.8276,0.0011501,0.00018071,0.0,0 STARLINK-3145,1 49455U 21104AZ  22192.73796482  .00018071  00000-0  11501-2 0  9994,2 49455  53.2163 100.9225 0002043  46.2885 313.8276 15.08854532 38013,6917.8359999999975,95.437,541.114,538.288,0.0
49455.0,STARLINK-3145,PAYLOAD,2022-07-12 11:11:53,15.08869603,0.0002139,53.217,97.6516,48.1505,311.967,0.00098502,0.00015436,0.0,0 STARLINK-3145,1 49455U 21104AZ  22193.46659648  .00015436  00000-0  98502-3 0  9996,2 49455  53.2170  97.6516 0002139  48.1505 311.9670 15.08869603 38126,6917.79,95.436,541.135,538.175,0.0
49455.0,STARLINK-3145,PAYLOAD,2022-07-12 19:08:49,15.08866465,0.0002315,53.2176,96.1656,49.4215,310.6978,0.00058347,9.017e-05,0.0,0 STARLINK-3145,1 49455U 21104AZ  22193.79779308  .00009017  00000-0  58347-3 0  9999,2 49455  53.2176  96.1656 0002315  49.4215 310.6978 15.08866465 38174,6917.799,95.436,541.266,538.063,0.0
49455.0,STARLINK-3145,PAYLOAD,2022-07-13 11:02:39,15.08865829,0.0002343,53.2178,93.1917,50.2133,309.9065,0.00026617,3.953e-05,0.0,0 STARLINK-3145,1 49455U 21104AZ  22194.46018265  .00003953  00000-0  26617-3 0  9990,2 49455  53.2178  93.1917 0002343  50.2133 309.9065 15.08865829 38275,6917.801,95.436,541.2869999999998,538.0459999999998,0.0
49455.0,STARLINK-3145,PAYLOAD,2022-07-13 20:34:58,15.08844852,0.0002126,53.218,91.4076,50.8967,309.2214,-0.00019261,-3.353e-05,0.0,0 STARLINK-3145,1 49455U 21104AZ  22194.85762600 -.00003353  00000-0 -19261-3 0  9995,2 49455  53.2180  91.4076 0002126  50.8967 309.2214 15.08844852 38334,6917.866,95.437,541.201,538.26,0.0
49455.0,STARLINK-3145,PAYLOAD,2022-07-14 02:56:31,15.08833658,0.0002144,53.2179,90.2186,43.6386,316.4776,-0.00036736,-6.129e-05,0.0,0 STARLINK-3145,1 49455U 21104AZ  22195.12258937 -.00006129  00000-0 -36736-3 0  9999,2 49455  53.2179  90.2186 0002144  43.6386 316.4776 15.08833658 38375,6917.9,95.438,541.248,538.2819999999998,0.0
49455.0,STARLINK-3145,PAYLOAD,2022-07-14 20:25:46,15.08838541,0.0002128,53.2179,86.9481,43.2741,316.8418,-1.386e-05,-5.09e-06,0.0,0 STARLINK-3145,1 49455U 21104AZ  22195.85123152 -.00000509  00000-0 -13860-4 0  9999,2 49455  53.2179  86.9481 0002128  43.2741 316.8418 15.08838541 37415,6917.885,95.438,541.222,538.278,0.0
49455.0,STARLINK-3145,PAYLOAD,2022-07-15 02:47:18,15.08843743,0.0002139,53.2177,85.7582,43.1237,316.9922,0.00031229,4.686e-05,0.0,0 STARLINK-3145,1 49455U 21104AZ  22196.11619146  .00004686  00000-0  31229-3 0  9998,2 49455  53.2177  85.7582 0002139  43.1237 316.9922 15.08843743 38527,6917.869000000002,95.437,541.214,538.254,0.0
49455.0,STARLINK-3145,PAYLOAD,2022-07-15 09:08:51,15.08850434,0.000212,53.2176,84.5689,43.6469,316.469,0.0005262999999999,8.1e-05,0.0,0 STARLINK-3145,1 49455U 21104AZ  22196.38115005  .00008100  00000-0  52630-3 0  9996,2 49455  53.2176  84.5689 0002120  43.6469 316.4690 15.08850434 37490,6917.848000000001,95.437,541.18,538.247,0.0
49455.0,STARLINK-3145,PAYLOAD,2022-07-15 20:16:33,15.08842962,0.0002116,53.2178,82.4877,44.7051,315.4111,0.0002218,3.244e-05,0.0,0 STARLINK-3145,1 49455U 21104AZ  22196.84483214  .00003244  00000-0  22180-3 0  9998,2 49455  53.2178  82.4877 0002116  44.7051 315.4111 15.08842962 37564,6917.871,95.437,541.2,538.273,0.0
49455.0,STARLINK-3145,PAYLOAD,2022-07-16 02:38:05,15.08847285,0.0002103,53.2178,81.2982,45.1174,314.9989,0.00032172,4.837e-05,0.0,0 STARLINK-3145,1 49455U 21104AZ  22197.10979089  .00004837  00000-0  32172-3 0  9999,2 49455  53.2178  81.2982 0002103  45.1174 314.9989 15.08847285 38678,6917.858,95.437,541.178,538.268,0.0
49455.0,STARLINK-3145,PAYLOAD,2022-07-16 08:59:38,15.08851655,0.0002101,53.2178,80.1088,45.8744,314.242,0.00033971,5.124e-05,0.0,0 STARLINK-3145,1 49455U 21104AZ  22197.37474845  .00005124  00000-0  33971-3 0  9996,2 49455  53.2178  80.1088 0002101  45.8744 314.2420 15.08851655 37646,6917.845,95.437,541.163,538.256,0.0
49455.0,STARLINK-3145,PAYLOAD,2022-07-16 21:42:43,15.08846224,0.0002022,53.2173,77.7295,42.9225,317.1924,7.627e-05,9.26e-06,0.0,0 STARLINK-3145,1 49455U 21104AZ  22197.90466652  .00000926  00000-0  76270-4 0  9997,2 49455  53.2173  77.7295 0002022  42.9225 317.1924 15.08846224 37723,6917.861,95.437,541.125,538.328,0.0
49455.0,STARLINK-3145,PAYLOAD,2022-07-17 02:28:52,15.08836505,0.0002113,53.2174,76.8372,46.5739,313.5429,-0.00011255,-2.079e-05,0.0,0 STARLINK-3145,1 49455U 21104AZ  22198.10339050 -.00002079  00000-0 -11255-3 0  9995,2 49455  53.2174  76.8372 0002113  46.5739 313.5429 15.08836505 38824,6917.891,95.438,541.2180000000002,538.294,0.0
49455.0,STARLINK-3145,PAYLOAD,2022-07-17 08:50:25,15.08838067,0.0002211,53.2175,75.6483,48.1169,312.0012,-9.3506e-05,-1.776e-05,0.0,0 STARLINK-3145,1 49455U 21104AZ  22198.36834765 -.00001776  00000-0 -93506-4 0  9999,2 49455  53.2175  75.6483 0002211  48.1169 312.0012 15.08838067 37791,6917.886,95.438,541.281,538.222,0.0
49455.0,STARLINK-3145,PAYLOAD,2022-07-17 16:47:20,15.08844225,0.0002091,53.2175,74.1608,45.3322,314.784,0.00012484,1.699e-05,0.0,0 STARLINK-3145,1 49455U 21104AZ  22198.69954844  .00001699  00000-0  12484-3 0  9993,2 49455  53.2175  74.1608 0002091  45.3322 314.7840 15.08844225 37847,6917.8669999999975,95.437,541.179,538.286,0.0
49455.0,STARLINK-3145,PAYLOAD,2022-07-18 08:41:12,15.08836918,0.0002018,53.2178,71.1872,46.4618,313.6541,2.4556e-05,1.03e-06,0.0,0 STARLINK-3145,1 49455U 21104AZ  22199.36195296  .00000103  00000-0  24556-4 0  9999,2 49455  53.2178  71.1872 0002018  46.4618 313.6541 15.08836918 39016,6917.89,95.438,541.151,538.359,0.0
